{
  "type": "FeatureCollection",
  "features": [
    {
      "type": "Feature",
      "properties": {
        "norad_id": 31991,
        "name": "FENGYUN 1C DEB",
        "group": "fengyun-1c-debris",
        "lat": -0.7811362361208409,
        "lon": 169.6460948584968,
        "alt_km": 963.0264420505837,
        "timestamp": "2025-12-06T22:38:43.013413+00:00",
        "meta_object_name": "FENGYUN 1C DEB",
        "meta_object_id": "1999-025CPU",
        "meta_epoch": "2025-12-03T06:27:10.152000",
        "meta_mean_motion": 13.6127431,
        "meta_eccentricity": 0.0244591,
        "meta_inclination": 100.4871,
        "meta_ra_of_asc_node": 165.5577,
        "meta_arg_of_pericenter": 76.633,
        "meta_mean_anomaly": 286.1951,
        "meta_ephemeris_type": 0,
        "meta_classification_type": "U",
        "meta_norad_cat_id": 31991,
        "meta_element_set_no": 999,
        "meta_rev_at_epoch": 61958,
        "meta_bstar": 0.00020994,
        "meta_mean_motion_dot": 1.46e-06,
        "meta_mean_motion_ddot": 0,
        "tle_line1": "1 31991U 99025CPU 25337.26886750  .00000146  00000+0  20994-3 0  9997",
        "tle_line2": "2 31991 100.4871 165.5577 0244591  76.6330 286.1951 13.61274310619581"
      },
      "geometry": {
        "type": "Point",
        "coordinates": [
          169.6460948584968,
          -0.7811362361208409
        ]
      }
    },
    {
      "type": "Feature",
      "properties": {
        "norad_id": 31992,
        "name": "FENGYUN 1C DEB",
        "group": "fengyun-1c-debris",
        "lat": -40.58403474140523,
        "lon": -50.554729643616575,
        "alt_km": 1120.2911891341646,
        "timestamp": "2025-12-06T22:38:43.013423+00:00",
        "meta_object_name": "FENGYUN 1C DEB",
        "meta_object_id": "1999-025CPV",
        "meta_epoch": "2025-11-28T04:18:18.013824",
        "meta_mean_motion": 13.22945767,
        "meta_eccentricity": 0.05423475,
        "meta_inclination": 99.1642,
        "meta_ra_of_asc_node": 293.7613,
        "meta_arg_of_pericenter": 64.8199,
        "meta_mean_anomaly": 300.815,
        "meta_ephemeris_type": 0,
        "meta_classification_type": "U",
        "meta_norad_cat_id": 31992,
        "meta_element_set_no": 999,
        "meta_rev_at_epoch": 53682,
        "meta_bstar": 0.0012217074,
        "meta_mean_motion_dot": 1.091e-05,
        "meta_mean_motion_ddot": 0,
        "tle_line1": "1 31992U 99025CPV 25332.17937516  .00001091  00000+0  12217-2 0  9998",
        "tle_line2": "2 31992  99.1642 293.7613 0542347  64.8199 300.8150 13.22945767536827"
      },
      "geometry": {
        "type": "Point",
        "coordinates": [
          -50.554729643616575,
          -40.58403474140523
        ]
      }
    },
    {
      "type": "Feature",
      "properties": {
        "norad_id": 31993,
        "name": "FENGYUN 1C DEB",
        "group": "fengyun-1c-debris",
        "lat": -80.58671818053877,
        "lon": 32.94111910857221,
        "alt_km": 1323.0532534499362,
        "timestamp": "2025-12-06T22:38:43.013433+00:00",
        "meta_object_name": "FENGYUN 1C DEB",
        "meta_object_id": "1999-025CPW",
        "meta_epoch": "2025-12-05T16:22:11.735328",
        "meta_mean_motion": 13.27432701,
        "meta_eccentricity": 0.04213339,
        "meta_inclination": 99.2419,
        "meta_ra_of_asc_node": 312.686,
        "meta_arg_of_pericenter": 152.6579,
        "meta_mean_anomaly": 209.7419,
        "meta_ephemeris_type": 0,
        "meta_classification_type": "U",
        "meta_norad_cat_id": 31993,
        "meta_element_set_no": 999,
        "meta_rev_at_epoch": 88849,
        "meta_bstar": 0.0017786408,
        "meta_mean_motion_dot": 1.26e-05,
        "meta_mean_motion_ddot": 0,
        "tle_line1": "1 31993U 99025CPW 25339.68208027  .00001260  00000+0  17786-2 0  9994",
        "tle_line2": "2 31993  99.2419 312.6860 0421333 152.6579 209.7419 13.27432701888497"
      },
      "geometry": {
        "type": "Point",
        "coordinates": [
          32.94111910857221,
          -80.58671818053877
        ]
      }
    },
    {
      "type": "Feature",
      "properties": {
        "norad_id": 31994,
        "name": "FENGYUN 1C DEB",
        "group": "fengyun-1c-debris",
        "lat": 58.08463677398116,
        "lon": 169.49972458736497,
        "alt_km": 813.3829882081136,
        "timestamp": "2025-12-06T22:38:43.013444+00:00",
        "meta_object_name": "FENGYUN 1C DEB",
        "meta_object_id": "1999-025CPX",
        "meta_epoch": "2025-12-06T06:34:51.862368",
        "meta_mean_motion": 13.95753387,
        "meta_eccentricity": 0.01620138,
        "meta_inclination": 98.5386,
        "meta_ra_of_asc_node": 334.9207,
        "meta_arg_of_pericenter": 163.9852,
        "meta_mean_anomaly": 196.652,
        "meta_ephemeris_type": 0,
        "meta_classification_type": "U",
        "meta_norad_cat_id": 31994,
        "meta_element_set_no": 999,
        "meta_rev_at_epoch": 56706,
        "meta_bstar": 0.00040227301,
        "meta_mean_motion_dot": 5.74e-06,
        "meta_mean_motion_ddot": 0,
        "tle_line1": "1 31994U 99025CPX 25340.27421137  .00000574  00000+0  40227-3 0  9995",
        "tle_line2": "2 31994  98.5386 334.9207 0162013 163.9852 196.6520 13.95753387567066"
      },
      "geometry": {
        "type": "Point",
        "coordinates": [
          169.49972458736497,
          58.08463677398116
        ]
      }
    },
    {
      "type": "Feature",
      "properties": {
        "norad_id": 31997,
        "name": "FENGYUN 1C DEB",
        "group": "fengyun-1c-debris",
        "lat": 74.03799045565592,
        "lon": -106.25019904081952,
        "alt_km": 1238.8094261099059,
        "timestamp": "2025-12-06T22:38:43.013454+00:00",
        "meta_object_name": "FENGYUN 1C DEB",
        "meta_object_id": "1999-025CQA",
        "meta_epoch": "2025-12-04T08:22:42.134592",
        "meta_mean_motion": 13.60620504,
        "meta_eccentricity": 0.0289215,
        "meta_inclination": 102.5108,
        "meta_ra_of_asc_node": 19.5203,
        "meta_arg_of_pericenter": 292.7716,
        "meta_mean_anomaly": 64.3097,
        "meta_ephemeris_type": 0,
        "meta_classification_type": "U",
        "meta_norad_cat_id": 31997,
        "meta_element_set_no": 999,
        "meta_rev_at_epoch": 61569,
        "meta_bstar": 0.0037455,
        "meta_mean_motion_dot": 3.659e-05,
        "meta_mean_motion_ddot": 0,
        "tle_line1": "1 31997U 99025CQA 25338.34909878  .00003659  00000+0  37455-2 0  9991",
        "tle_line2": "2 31997 102.5108  19.5203 0289215 292.7716  64.3097 13.60620504615692"
      },
      "geometry": {
        "type": "Point",
        "coordinates": [
          -106.25019904081952,
          74.03799045565592
        ]
      }
    },
    {
      "type": "Feature",
      "properties": {
        "norad_id": 32086,
        "name": "FENGYUN 1C DEB",
        "group": "fengyun-1c-debris",
        "lat": 0.32746226238339043,
        "lon": -143.87549525503158,
        "alt_km": 810.6387995411087,
        "timestamp": "2025-12-06T22:38:43.013464+00:00",
        "meta_object_name": "FENGYUN 1C DEB",
        "meta_object_id": "1999-025CQC",
        "meta_epoch": "2025-12-06T09:30:26.667936",
        "meta_mean_motion": 13.68848486,
        "meta_eccentricity": 0.03008584,
        "meta_inclination": 99.2701,
        "meta_ra_of_asc_node": 35.544,
        "meta_arg_of_pericenter": 151.9949,
        "meta_mean_anomaly": 209.7757,
        "meta_ephemeris_type": 0,
        "meta_classification_type": "U",
        "meta_norad_cat_id": 32086,
        "meta_element_set_no": 999,
        "meta_rev_at_epoch": 61694,
        "meta_bstar": 0.0037730503,
        "meta_mean_motion_dot": 4.423e-05,
        "meta_mean_motion_ddot": 0,
        "tle_line1": "1 32086U 99025CQC 25340.39614199  .00004423  00000+0  37731-2 0  9995",
        "tle_line2": "2 32086  99.2701  35.5440 0300858 151.9949 209.7757 13.68848486616941"
      },
      "geometry": {
        "type": "Point",
        "coordinates": [
          -143.87549525503158,
          0.32746226238339043
        ]
      }
    },
    {
      "type": "Feature",
      "properties": {
        "norad_id": 32088,
        "name": "FENGYUN 1C DEB",
        "group": "fengyun-1c-debris",
        "lat": 43.90894863962199,
        "lon": 38.0360816755555,
        "alt_km": 1351.2799567827033,
        "timestamp": "2025-12-06T22:38:43.013474+00:00",
        "meta_object_name": "FENGYUN 1C DEB",
        "meta_object_id": "1999-025CQE",
        "meta_epoch": "2025-12-06T09:18:40.455072",
        "meta_mean_motion": 13.25142196,
        "meta_eccentricity": 0.04613178,
        "meta_inclination": 102.4006,
        "meta_ra_of_asc_node": 205.1466,
        "meta_arg_of_pericenter": 10.58,
        "meta_mean_anomaly": 350.463,
        "meta_ephemeris_type": 0,
        "meta_classification_type": "U",
        "meta_norad_cat_id": 32088,
        "meta_element_set_no": 999,
        "meta_rev_at_epoch": 59760,
        "meta_bstar": 0.0056997222,
        "meta_mean_motion_dot": 4.329e-05,
        "meta_mean_motion_ddot": 0,
        "tle_line1": "1 32088U 99025CQE 25340.38796823  .00004329  00000+0  56997-2 0  9991",
        "tle_line2": "2 32088 102.4006 205.1466 0461317  10.5800 350.4630 13.25142196597608"
      },
      "geometry": {
        "type": "Point",
        "coordinates": [
          38.0360816755555,
          43.90894863962199
        ]
      }
    }
  ]
}